[{"OBJECT_NAME":"ONEWEB-0012","OBJECT_ID":"2019-010A","EPOCH":"2026-03-09T13:05:02.243040","MEAN_MOTION":13.1659301,"ECCENTRICITY":0.00012136,"INCLINATION":87.9001,"RA_OF_ASC_NODE":248.6038,"ARG_OF_PERICENTER":101.3667,"MEAN_ANOMALY":258.7601,"EPHEMERIS_TYPE":0,"CLASSIFICATION_TYPE":"U","NORAD_CAT_ID":44057,"ELEMENT_SET_NO":999,"REV_AT_EPOCH":33845,"BSTAR":0.00016789545,"MEAN_MOTION_DOT":7.7e-7,"MEAN_MOTION_DDOT":0},{"OBJECT_NAME":"ONEWEB-0010","OBJECT_ID":"2019-010B","EPOCH":"2026-03-09T20:59:15.707040","MEAN_MOTION":13.1658675,"ECCENTRICITY":0.0002016,"INCLINATION":87.9006,"RA_OF_ASC_NODE":248.5334,"ARG_OF_PERICENTER":100.5615,"MEAN_ANOMALY":259.5743,"EPHEMERIS_TYPE":0,"CLASSIFICATION_TYPE":"U","NORAD_CAT_ID":44058,"ELEMENT_SET_NO":999,"REV_AT_EPOCH":33854,"BSTAR":0.0040103,"MEAN_MOTION_DOT":1.546e-5,"MEAN_MOTION_DDOT":0},{"OBJECT_NAME":"ONEWEB-0008","OBJECT_ID":"2019-010C","EPOCH":"2026-03-09T12:28:33.740544","MEAN_MOTION":13.16593709,"ECCENTRICITY":0.00016277,"INCLINATION":87.9001,"RA_OF_ASC_NODE":248.6009,"ARG_OF_PERICENTER":89.2999,"MEAN_ANOMALY":270.8318,"EPHEMERIS_TYPE":0,"CLASSIFICATION_TYPE":"U","NORAD_CAT_ID":44059,"ELEMENT_SET_NO":999,"REV_AT_EPOCH":33861,"BSTAR":3.49524e-6,"MEAN_MOTION_DOT":1.4e-7,"MEAN_MOTION_DDOT":0},{"OBJECT_NAME":"ONEWEB-0007","OBJECT_ID":"2019-010D","EPOCH":"2026-03-09T15:04:07.974912","MEAN_MOTION":13.15546142,"ECCENTRICITY":0.0001539,"INCLINATION":87.8938,"RA_OF_ASC_NODE":279.1029,"ARG_OF_PERICENTER":100.661,"MEAN_ANOMALY":259.4694,"EPHEMERIS_TYPE":0,"CLASSIFICATION_TYPE":"U","NORAD_CAT_ID":44060,"ELEMENT_SET_NO":999,"REV_AT_EPOCH":33828,"BSTAR":-7.1193e-5,"MEAN_MOTION_DOT":-1.4e-7,"MEAN_MOTION_DDOT":0},{"OBJECT_NAME":"ONEWEB-0006","OBJECT_ID":"2019-010E","EPOCH":"2026-03-09T15:09:51.013152","MEAN_MOTION":13.15546755,"ECCENTRICITY":0.000172,"INCLINATION":87.8947,"RA_OF_ASC_NODE":279.0562,"ARG_OF_PERICENTER":96.5412,"MEAN_ANOMALY":263.5914,"EPHEMERIS_TYPE":0,"CLASSIFICATION_TYPE":"U","NORAD_CAT_ID":44061,"ELEMENT_SET_NO":999,"REV_AT_EPOCH":33833,"BSTAR":0.00017129,"MEAN_MOTION_DOT":7.7e-7,"MEAN_MOTION_DDOT":0},{"OBJECT_NAME":"ONEWEB-0011","OBJECT_ID":"2019-010F","EPOCH":"2026-03-09T19:52:46.372800","MEAN_MOTION":13.15547694,"ECCENTRICITY":0.0001923,"INCLINATION":87.8948,"RA_OF_ASC_NODE":279.024,"ARG_OF_PERICENTER":90.4222,"MEAN_ANOMALY":269.7129,"EPHEMERIS_TYPE":0,"CLASSIFICATION_TYPE":"U","NORAD_CAT_ID":44062,"ELEMENT_SET_NO":999,"REV_AT_EPOCH":33835,"BSTAR":-0.00024445,"MEAN_MOTION_DOT":-7.9e-7,"MEAN_MOTION_DDOT":0},{"OBJECT_NAME":"ONEWEB-0013","OBJECT_ID":"2020-008A","EPOCH":"2026-03-09T12:43:10.005888","MEAN_MOTION":13.09451006,"ECCENTRICITY":8.307e-5,"INCLINATION":87.8442,"RA_OF_ASC_NODE":72.942,"ARG_OF_PERICENTER":88.0516,"MEAN_ANOMALY":272.0706,"EPHEMERIS_TYPE":0,"CLASSIFICATION_TYPE":"U","NORAD_CAT_ID":45131,"ELEMENT_SET_NO":999,"REV_AT_EPOCH":29302,"BSTAR":0.0020204133,"MEAN_MOTION_DOT":7.09e-6,"MEAN_MOTION_DDOT":0},{"OBJECT_NAME":"ONEWEB-0017","OBJECT_ID":"2020-008B","EPOCH":"2026-03-09T21:18:16.838496","MEAN_MOTION":13.10370318,"ECCENTRICITY":0.0002057,"INCLINATION":87.8769,"RA_OF_ASC_NODE":56.0409,"ARG_OF_PERICENTER":90.0136,"MEAN_ANOMALY":270.1227,"EPHEMERIS_TYPE":0,"CLASSIFICATION_TYPE":"U","NORAD_CAT_ID":45132,"ELEMENT_SET_NO":999,"REV_AT_EPOCH":29494,"BSTAR":0.00062411,"MEAN_MOTION_DOT":2.31e-6,"MEAN_MOTION_DDOT":0},{"OBJECT_NAME":"ONEWEB-0020","OBJECT_ID":"2020-008C","EPOCH":"2026-03-09T20:35:15.925344","MEAN_MOTION":13.1037653,"ECCENTRICITY":0.0001845,"INCLINATION":87.8782,"RA_OF_ASC_NODE":56.0374,"ARG_OF_PERICENTER":85.9163,"MEAN_ANOMALY":274.2175,"EPHEMERIS_TYPE":0,"CLASSIFICATION_TYPE":"U","NORAD_CAT_ID":45133,"ELEMENT_SET_NO":999,"REV_AT_EPOCH":29533,"BSTAR":0.00097288,"MEAN_MOTION_DOT":3.52e-6,"MEAN_MOTION_DDOT":0},{"OBJECT_NAME":"ONEWEB-0021","OBJECT_ID":"2020-008D","EPOCH":"2026-03-09T11:47:00.240864","MEAN_MOTION":13.10372139,"ECCENTRICITY":0.00018218,"INCLINATION":87.877,"RA_OF_ASC_NODE":56.1349,"ARG_OF_PERICENTER":89.5691,"MEAN_ANOMALY":270.5646,"EPHEMERIS_TYPE":0,"CLASSIFICATION_TYPE":"U","NORAD_CAT_ID":45134,"ELEMENT_SET_NO":999,"REV_AT_EPOCH":29559,"BSTAR":0.0017319587,"MEAN_MOTION_DOT":6.17e-6,"MEAN_MOTION_DDOT":0},{"OBJECT_NAME":"ONEWEB-0023","OBJECT_ID":"2020-008F","EPOCH":"2026-03-09T21:12:18.031392","MEAN_MOTION":13.1037162,"ECCENTRICITY":0.0001667,"INCLINATION":87.8766,"RA_OF_ASC_NODE":56.0361,"ARG_OF_PERICENTER":85.2329,"MEAN_ANOMALY":274.8989,"EPHEMERIS_TYPE":0,"CLASSIFICATION_TYPE":"U","NORAD_CAT_ID":45136,"ELEMENT_SET_NO":999,"REV_AT_EPOCH":29507,"BSTAR":0.0012984,"MEAN_MOTION_DOT":4.66e-6,"MEAN_MOTION_DDOT":0},{"OBJECT_NAME":"ONEWEB-0024","OBJECT_ID":"2020-008G","EPOCH":"2026-03-09T20:32:51.674496","MEAN_MOTION":13.10375739,"ECCENTRICITY":0.0001843,"INCLINATION":87.8786,"RA_OF_ASC_NODE":56.0268,"ARG_OF_PERICENTER":86.6938,"MEAN_ANOMALY":273.44,"EPHEMERIS_TYPE":0,"CLASSIFICATION_TYPE":"U","NORAD_CAT_ID":45137,"ELEMENT_SET_NO":999,"REV_AT_EPOCH":29523,"BSTAR":0.00090387,"MEAN_MOTION_DOT":3.28e-6,"MEAN_MOTION_DDOT":0},{"OBJECT_NAME":"ONEWEB-0025","OBJECT_ID":"2020-008H","EPOCH":"2026-03-09T11:34:15.511008","MEAN_MOTION":13.1087712,"ECCENTRICITY":0.00015176,"INCLINATION":87.8781,"RA_OF_ASC_NODE":56.0932,"ARG_OF_PERICENTER":88.6252,"MEAN_ANOMALY":271.5049,"EPHEMERIS_TYPE":0,"CLASSIFICATION_TYPE":"U","NORAD_CAT_ID":45138,"ELEMENT_SET_NO":999,"REV_AT_EPOCH":29551,"BSTAR":0.0015103667,"MEAN_MOTION_DOT":5.44e-6,"MEAN_MOTION_DDOT":0},{"OBJECT_NAME":"ONEWEB-0026","OBJECT_ID":"2020-008J","EPOCH":"2026-03-09T10:31:43.429440","MEAN_MOTION":13.1141725,"ECCENTRICITY":0.00020168,"INCLINATION":87.8866,"RA_OF_ASC_NODE":40.8964,"ARG_OF_PERICENTER":83.1351,"MEAN_ANOMALY":277.0007,"EPHEMERIS_TYPE":0,"CLASSIFICATION_TYPE":"U","NORAD_CAT_ID":45139,"ELEMENT_SET_NO":999,"REV_AT_EPOCH":29803,"BSTAR":0.0011656246,"MEAN_MOTION_DOT":4.26e-6,"MEAN_MOTION_DDOT":0},{"OBJECT_NAME":"ONEWEB-0028","OBJECT_ID":"2020-008K","EPOCH":"2026-03-09T20:28:38.481888","MEAN_MOTION":13.11413615,"ECCENTRICITY":0.0001199,"INCLINATION":87.8854,"RA_OF_ASC_NODE":40.8226,"ARG_OF_PERICENTER":81.4022,"MEAN_ANOMALY":278.7242,"EPHEMERIS_TYPE":0,"CLASSIFICATION_TYPE":"U","NORAD_CAT_ID":45140,"ELEMENT_SET_NO":999,"REV_AT_EPOCH":29560,"BSTAR":-0.00030757,"MEAN_MOTION_DOT":-9.6e-7,"MEAN_MOTION_DDOT":0},{"OBJECT_NAME":"ONEWEB-0032","OBJECT_ID":"2020-008L","EPOCH":"2026-03-09T21:20:40.582176","MEAN_MOTION":13.10363896,"ECCENTRICITY":0.000141,"INCLINATION":87.8769,"RA_OF_ASC_NODE":56.042,"ARG_OF_PERICENTER":85.8799,"MEAN_ANOMALY":274.249,"EPHEMERIS_TYPE":0,"CLASSIFICATION_TYPE":"U","NORAD_CAT_ID":45141,"ELEMENT_SET_NO":999,"REV_AT_EPOCH":29529,"BSTAR":-0.00052711,"MEAN_MOTION_DOT":-1.71e-6,"MEAN_MOTION_DDOT":0},{"OBJECT_NAME":"ONEWEB-0033","OBJECT_ID":"2020-008M","EPOCH":"2026-03-09T11:35:00.687840","MEAN_MOTION":13.1039215,"ECCENTRICITY":0.00024541,"INCLINATION":87.8753,"RA_OF_ASC_NODE":56.1349,"ARG_OF_PERICENTER":92.147,"MEAN_ANOMALY":267.9938,"EPHEMERIS_TYPE":0,"CLASSIFICATION_TYPE":"U","NORAD_CAT_ID":45142,"ELEMENT_SET_NO":999,"REV_AT_EPOCH":29515,"BSTAR":0.0081953309,"MEAN_MOTION_DOT":2.875e-5,"MEAN_MOTION_DDOT":0}]
