ONEWEB-0012             
1 44057U 19010A   26068.54516485  .00000077  00000+0  16790-3 0  9990
2 44057  87.9001 248.6038 0001213 101.3667 258.7601 13.16593010338450
ONEWEB-0010             
1 44058U 19010B   26068.87448735  .00001546  00000+0  40103-2 0  9995
2 44058  87.9006 248.5334 0002016 100.5615 259.5743 13.16586750338549
ONEWEB-0008             
1 44059U 19010C   26068.51983496  .00000014  00000+0  34952-5 0  9992
2 44059  87.9001 248.6009 0001627  89.2999 270.8318 13.16593709338614
ONEWEB-0007             
1 44060U 19010D   26068.62787008 -.00000014  00000+0 -71193-4 0  9996
2 44060  87.8938 279.1029 0001539 100.6610 259.4694 13.15546142338286
ONEWEB-0006             
1 44061U 19010E   26068.63184043  .00000077  00000+0  17129-3 0  9993
2 44061  87.8947 279.0562 0001720  96.5412 263.5914 13.15546755338330
ONEWEB-0011             
1 44062U 19010F   26068.82831450 -.00000079  00000+0 -24445-3 0  9999
2 44062  87.8948 279.0240 0001923  90.4222 269.7129 13.15547694338353
ONEWEB-0013             
1 45131U 20008A   26068.52997692  .00000709  00000+0  20204-2 0  9990
2 45131  87.8442  72.9420 0000830  88.0516 272.0706 13.09451006293021
ONEWEB-0017             
1 45132U 20008B   26068.88769489  .00000231  00000+0  62411-3 0  9998
2 45132  87.8769  56.0409 0002057  90.0136 270.1227 13.10370318294945
ONEWEB-0020             
1 45133U 20008C   26068.85782321  .00000352  00000+0  97288-3 0  9990
2 45133  87.8782  56.0374 0001845  85.9163 274.2175 13.10376530295332
ONEWEB-0021             
1 45134U 20008D   26068.49097501  .00000617  00000+0  17320-2 0  9992
2 45134  87.8770  56.1349 0001821  89.5691 270.5646 13.10372139295594
ONEWEB-0023             
1 45136U 20008F   26068.88354203  .00000466  00000+0  12984-2 0  9995
2 45136  87.8766  56.0361 0001667  85.2329 274.8989 13.10371620295077
ONEWEB-0024             
1 45137U 20008G   26068.85615364  .00000328  00000+0  90387-3 0  9992
2 45137  87.8786  56.0268 0001843  86.6938 273.4400 13.10375739295239
ONEWEB-0025             
1 45138U 20008H   26068.48212397  .00000544  00000+0  15104-2 0  9994
2 45138  87.8781  56.0932 0001517  88.6252 271.5049 13.10877120295512
ONEWEB-0026             
1 45139U 20008J   26068.43869710  .00000426  00000+0  11656-2 0  9994
2 45139  87.8866  40.8964 0002016  83.1351 277.0007 13.11417250298038
ONEWEB-0028             
1 45140U 20008K   26068.85322317 -.00000096  00000+0 -30757-3 0  9998
2 45140  87.8854  40.8226 0001199  81.4022 278.7242 13.11413615295605
ONEWEB-0032             
1 45141U 20008L   26068.88935859 -.00000171  00000+0 -52711-3 0  9991
2 45141  87.8769  56.0420 0001410  85.8799 274.2490 13.10363896295296
ONEWEB-0033             
1 45142U 20008M   26068.48264685  .00002875  00000+0  81953-2 0  9990
2 45142  87.8753  56.1349 0002454  92.1470 267.9938 13.10392150295153
